0 MOLNIYA 1-88
1 23420U 94081A   13282.12383883  .00052402  59613-6  78470-3 0  2316
2 23420 062.6040 309.7830 6596555 286.2447 014.5060 03.25626290140854
0 MOLNIYA 1-88
1 23420U 94081A   13283.35199039  .00028096  00000-0  45467-3 0  2334
2 23420 062.6032 309.4072 6594514 286.2669 014.5182 03.25755442140890
0 MOLNIYA 1-88
1 23420U 94081A   13283.35199119  .00053136  32400-6  81368-3 0  2331
2 23420 062.6042 309.4075 6595296 286.2731 014.5072 03.25755264140892
0 MOLNIYA 1-88
1 23420U 94081A   13283.35199508  .00052709  32401-6  80604-3 0  2320
2 23420 062.6039 309.4095 6595279 286.2729 014.5074 03.25760295140890
0 MOLNIYA 1-88
1 23420U 94081A   13285.19332274  .00048886 -25486-6  77237-3 0  2351
2 23420 062.6055 308.8449 6593439 286.3133 014.5106 03.25944816140956
0 MOLNIYA 1-88
1 23420U 94081A   13286.11360473  .00048365 -47410-6  77943-3 0  2364
2 23420 062.6060 308.5641 6592528 286.3317 014.5104 03.26031379140988
0 MOLNIYA 1-88
1 23420U 94081A   13287.03363843  .00048059 -57865-6  79109-3 0  2372
2 23420 062.6064 308.2826 6591669 286.3520 014.5065 03.26111426141018
0 MOLNIYA 1-88
1 23420U 94081A   13287.64686611  .00051612 -57548-6  86074-3 0  2387
2 23420 062.6066 308.0957 6591124 286.3656 014.5020 03.26166181141030
0 MOLNIYA 1-88
1 23420U 94081A   13288.25997509  .00054173 -51647-6  91339-3 0  2396
2 23420 062.6069 307.9091 6590507 286.3805 014.4966 03.26236127141058
0 MOLNIYA 1-88
1 23420U 94081A   13291.01751433  .00054346  16669-6  98695-3 0  2408
2 23420 062.6077 307.0656 6587737 286.4364 014.4705 03.26506445141141
0 MOLNIYA 1-88
1 23420U 94081A   13292.24234799  .00054001  48383-6  10024-2 0  2411
2 23420 062.6083 306.6896 6586606 286.4640 014.4603 03.26632601141185
0 MOLNIYA 1-88
1 23420U 94081A   13293.16066452  .00054644  65637-6  10348-2 0  2426
2 23420 062.6085 306.4085 6585686 286.4828 014.4568 03.26727584141219
0 MOLNIYA 1-88
1 23420U 94081A   13294.07871649  .00054620  75484-6  10587-2 0  2430
2 23420 062.6089 306.1276 6584699 286.5005 014.4567 03.26823161141243
0 MOLNIYA 1-88
1 23420U 94081A   13294.38467227  .00056219  77021-6  10914-2 0  2447
2 23420 062.6090 306.0334 6584487 286.5084 014.4558 03.26849513141251
0 MOLNIYA 1-88
1 23420U 94081A   13294.99650689  .00054247  77484-6  10672-2 0  2454
2 23420 062.6095 305.8464 6583854 286.5201 014.4575 03.26913032141274
0 MOLNIYA 1-88
1 23420U 94081A   13295.30238125  .00055116  76454-6  10862-2 0  2461
2 23420 062.6101 305.7528 6583584 286.5286 014.4574 03.26946823141289
0 MOLNIYA 1-88
1 23420U 94081A   13295.60822583  .00053771  74618-6  10675-2 0  2479
2 23420 062.6104 305.6590 6583250 286.5336 014.4591 03.26979194141293
0 MOLNIYA 1-88
1 23420U 94081A   13295.91404248  .00052738  72018-6  10516-2 0  2486
2 23420 062.6106 305.5650 6582941 286.5403 014.4602 03.27013565141309
